0 TITAN 3C TRANSTAGE DEB
1 38704U 68081AE  13281.91475770 -.00000126  00000-0  10000-3 0  2201
2 38704 005.6557 312.7744 0194151 251.5902 106.1103 01.02205508 28662
0 TITAN 3C TRANSTAGE DEB
1 38704U 68081AE  13283.87161284 -.00000061  00000-0  10000-3 0  2219
2 38704 005.6484 312.7832 0201766 251.7773 106.0129 01.02204805 28686
0 TITAN 3C TRANSTAGE DEB
1 38704U 68081AE  13284.84841856 -.00000036  00000-0  10000-3 0  2231
2 38704 005.6486 312.7772 0198156 251.7872 105.3726 01.02204500 28697
0 TITAN 3C TRANSTAGE DEB
1 38704U 68081AE  13284.84960175 -.00000034  00000-0  10000-3 0  2224
2 38704 005.6492 312.7613 0220635 251.6217 106.2460 01.02204464 28692
0 TITAN 3C TRANSTAGE DEB
1 38704U 68081AE  13286.80659329 -.00000007  00000-0  10000-3 0  2240
2 38704 005.6469 312.7716 0195463 251.6033 106.0230 01.02204273 28710
0 TITAN 3C TRANSTAGE DEB
1 38704U 68081AE  13293.65542548 -.00000182  00000-0  10000-3 0  2250
2 38704 005.6367 312.7486 0186519 250.9707 106.5757 01.02207085 28783
